NORAD_CAT_ID,OBJECT_NAME,OBJECT_TYPE,EPOCH,MEAN_MOTION,ECCENTRICITY,INCLINATION,RA_OF_ASC_NODE,ARG_OF_PERICENTER,MEAN_ANOMALY,BSTAR,MEAN_MOTION_DOT,MEAN_MOTION_DDOT,TLE_LINE0,TLE_LINE1,TLE_LINE2,SEMIMAJOR_AXIS,PERIOD,APOGEE,PERIGEE,DECAYED
53890.0,STARLINK-5050,PAYLOAD,2024-04-06 13:55:13,15.08842988,0.0001855,53.2173,200.7965,95.5495,264.5709,5.3436e-05,5.62e-06,0.0,0 STARLINK-5050,1 53890U 22119E   24097.58002020  .00000562  00000-0  53436-4 0  9997,2 53890  53.2173 200.7965 0001855  95.5495 264.5709 15.08842988 86182,6917.871,95.437,541.02,538.453,0.0
53890.0,STARLINK-5050,PAYLOAD,2024-04-07 05:49:05,15.08837755,0.0002362,53.2178,197.8249,113.3375,246.7866,2.8517e-05,1.65e-06,0.0,0 STARLINK-5050,1 53890U 22119E   24098.24242203  .00000165  00000-0  28517-4 0  9991,2 53890  53.2178 197.8249 0002362 113.3375 246.7866 15.08837755 85864,6917.887,95.438,541.386,538.118,0.0
53890.0,STARLINK-5050,PAYLOAD,2024-04-07 15:21:24,15.08828379,0.0001794,53.216,196.037,86.5467,273.573,-0.00019315,-3.36e-05,0.0,0 STARLINK-5050,1 53890U 22119E   24098.63986975 -.00003360  00000-0 -19315-3 0  9992,2 53890  53.2160 196.0370 0001794  86.5467 273.5730 15.08828379 85929,6917.916,95.438,541.022,538.54,0.0
53890.0,STARLINK-5050,PAYLOAD,2024-04-08 05:39:52,15.08836721,0.000158,53.2217,193.3635,87.2548,272.8625,0.00011571,1.554e-05,0.0,0 STARLINK-5050,1 53890U 22119E   24099.23602892  .00001554  00000-0  11571-3 0  9999,2 53890  53.2217 193.3635 0001580  87.2548 272.8625 15.08836721 86013,6917.89,95.438,540.848,538.662,0.0
53890.0,STARLINK-5050,PAYLOAD,2024-04-08 10:26:02,15.08839126,0.000176,53.2187,192.4719,92.93,267.1894,0.00018336,2.631e-05,0.0,0 STARLINK-5050,1 53890U 22119E   24099.43474844  .00002631  00000-0  18336-3 0  9998,2 53890  53.2187 192.4719 0001760  92.9300 267.1894 15.08839126 86467,6917.883,95.438,540.966,538.531,0.0
53890.0,STARLINK-5050,PAYLOAD,2024-04-09 11:52:12,15.08841429,0.0001345,53.2148,187.7135,91.3414,268.7732,0.00028535,4.257e-05,0.0,0 STARLINK-5050,1 53890U 22119E   24100.49459064  .00004257  00000-0  28535-3 0  9992,2 53890  53.2148 187.7135 0001345  91.3414 268.7732 15.08841429 86200,6917.876,95.437,540.671,538.811,0.0
53890.0,STARLINK-5050,PAYLOAD,2024-04-10 11:42:59,15.08839784,0.0001267,53.2159,183.2526,88.9474,271.1663,9.8219e-05,1.276e-05,0.0,0 STARLINK-5050,1 53890U 22119E   24101.48819149  .00001276  00000-0  98219-4 0  9991,2 53890  53.2159 183.2526 0001267  88.9474 271.1663 15.08839784 86356,6917.881,95.438,540.623,538.87,0.0
53890.0,STARLINK-5050,PAYLOAD,2024-04-11 11:33:46,15.08844895,0.0001621,53.2155,178.7903,95.948,264.1697,6.0734e-05,6.79e-06,0.0,0 STARLINK-5050,1 53890U 22119E   24102.48178873  .00000679  00000-0  60734-4 0  9991,2 53890  53.2155 178.7903 0001621  95.9480 264.1697 15.08844895 86920,6917.865,95.437,540.852,538.609,0.0
53890.0,STARLINK-5050,PAYLOAD,2024-04-12 05:03:00,15.08843561,0.0001536,53.2152,175.5187,107.7629,252.3531,0.00011142,1.486e-05,0.0,0 STARLINK-5050,1 53890U 22119E   24103.21042675  .00001486  00000-0  11142-3 0  9998,2 53890  53.2152 175.5187 0001536 107.7629 252.3531 15.08843561 86619,6917.87,95.437,540.797,538.672,0.0
53890.0,STARLINK-5050,PAYLOAD,2024-04-12 11:24:33,15.08840811,0.0001468,53.2161,174.3295,106.0466,254.0688,8.596e-05,1.08e-05,0.0,0 STARLINK-5050,1 53890U 22119E   24103.47538748  .00001080  00000-0  85960-4 0  9997,2 53890  53.2161 174.3295 0001468 106.0466 254.0688 15.08840811 87079,6917.878,95.438,540.758,538.727,0.0
53890.0,STARLINK-5050,PAYLOAD,2024-04-13 04:53:48,15.0883692,0.0001405,53.2163,171.0594,103.8295,256.2854,5.3536e-05,5.64e-06,0.0,0 STARLINK-5050,1 53890U 22119E   24104.20403057  .00000564  00000-0  53536-4 0  9993,2 53890  53.2163 171.0594 0001405 103.8295 256.2854 15.08836920 86763,6917.89,95.438,540.727,538.783,0.0
53890.0,STARLINK-5050,PAYLOAD,2024-04-13 11:15:21,15.08835125,0.0001405,53.2176,169.8687,105.2121,254.9026,-6.0063e-05,-1.244e-05,0.0,0 STARLINK-5050,1 53890U 22119E   24104.46899474 -.00001244  00000-0 -60063-4 0  9994,2 53890  53.2176 169.8687 0001405 105.2121 254.9026 15.08835125 87223,6917.895,95.438,540.732,538.788,0.0
53890.0,STARLINK-5050,PAYLOAD,2024-04-14 11:06:08,15.08838442,0.000136,53.2162,165.4059,87.0372,273.0775,5.629e-05,6.08e-06,0.0,0 STARLINK-5050,1 53890U 22119E   24105.46259294  .00000608  00000-0  56290-4 0  9993,2 53890  53.2162 165.4059 0001360  87.0372 273.0775 15.08838442 86955,6917.885,95.438,540.691,538.809,0.0
53890.0,STARLINK-5050,PAYLOAD,2024-04-15 10:56:54,15.08842081,0.0001406,53.2159,160.9473,82.2744,277.8408,0.00020008,2.898e-05,0.0,0 STARLINK-5050,1 53890U 22119E   24106.45619083  .00002898  00000-0  20008-3 0  9999,2 53890  53.2159 160.9473 0001406  82.2744 277.8408 15.08842081 87525,6917.874,95.437,540.712,538.766,0.0
53890.0,STARLINK-5050,PAYLOAD,2024-04-15 20:29:13,15.08850921,0.0001476,53.2166,159.1638,88.1561,271.96,0.00022814,3.346e-05,0.0,0 STARLINK-5050,1 53890U 22119E   24106.85362469  .00003346  00000-0  22814-3 0  9992,2 53890  53.2166 159.1638 0001476  88.1561 271.9600 15.08850921 87166,6917.847,95.437,540.733,538.691,0.0
53890.0,STARLINK-5050,PAYLOAD,2024-04-16 10:47:42,15.08840766,0.000177,53.2162,156.4892,89.4971,270.6224,2.4181e-05,9.7e-07,0.0,0 STARLINK-5050,1 53890U 22119E   24107.44979312  .00000097  00000-0  24181-4 0  9999,2 53890  53.2162 156.4892 0001770  89.4971 270.6224 15.08840766 87254,6917.878,95.438,540.968,538.519,0.0
53890.0,STARLINK-5050,PAYLOAD,2024-04-17 10:38:29,15.0883728,0.0001545,53.2149,152.0282,91.0974,269.0195,-2.6499e-06,-3.3e-06,0.0,0 STARLINK-5050,1 53890U 22119E   24108.44339617 -.00000330  00000-0 -26499-5 0  9995,2 53890  53.2149 152.0282 0001545  91.0974 269.0195 15.08837280 87825,6917.889,95.438,540.823,538.685,0.0
53890.0,STARLINK-5050,PAYLOAD,2024-04-18 02:32:21,15.08820144,0.0001655,53.2151,149.0533,96.5697,263.5484,0.00038773,5.885e-05,0.0,0 STARLINK-5050,1 53890U 22119E   24109.10580916  .00005885  00000-0  38773-3 0  9993,2 53890  53.2151 149.0533 0001655  96.5697 263.5484 15.08820144 87503,6917.941,95.439,540.951,538.661,0.0
53890.0,STARLINK-5050,PAYLOAD,2024-04-18 08:53:54,15.08831784,0.0001632,53.2154,147.8638,89.4579,270.66,3.0512e-05,1.98e-06,0.0,0 STARLINK-5050,1 53890U 22119E   24109.37076452  .00000198  00000-0  30512-4 0  9993,2 53890  53.2154 147.8638 0001632  89.4579 270.6600 15.08831784 87548,6917.906,95.438,540.9,538.641,0.0
53890.0,STARLINK-5050,PAYLOAD,2024-04-19 11:55:27,15.08845749,0.0001584,53.2151,142.8075,92.2453,267.872,0.00032146,4.833e-05,0.0,0 STARLINK-5050,1 53890U 22119E   24110.49684153  .00004833  00000-0  32146-3 0  9995,2 53890  53.2151 142.8075 0001584  92.2453 267.8720 15.08845749 87710,6917.863,95.437,540.824,538.632,0.0
53890.0,STARLINK-5050,PAYLOAD,2024-04-20 11:46:13,15.08855164,0.0001735,53.216,138.3472,103.7602,256.3584,0.00026862,3.991e-05,0.0,0 STARLINK-5050,1 53890U 22119E   24111.49043318  .00003991  00000-0  26862-3 0  9990,2 53890  53.2160 138.3472 0001735 103.7602 256.3584 15.08855164 88289,6917.834,95.437,540.899,538.499,0.0
53890.0,STARLINK-5050,PAYLOAD,2024-04-21 02:04:42,15.08837891,0.0001897,53.2163,135.6707,116.8337,243.2849,-8.9608e-05,-1.714e-05,0.0,0 STARLINK-5050,1 53890U 22119E   24112.08659940 -.00001714  00000-0 -89608-4 0  9991,2 53890  53.2163 135.6707 0001897 116.8337 243.2849 15.08837891 87951,6917.887,95.438,541.064,538.44,0.0
53890.0,STARLINK-5050,PAYLOAD,2024-04-21 08:26:15,15.08814991,0.0001507,53.2158,134.4817,106.8933,253.2225,-0.00047274,-7.799e-05,0.0,0 STARLINK-5050,1 53890U 22119E   24112.35156992 -.00007799  00000-0 -47274-3 0  9991,2 53890  53.2158 134.4817 0001507 106.8933 253.2225 15.08814991 88410,6917.957,95.439,540.864,538.779,0.0
53890.0,STARLINK-5050,PAYLOAD,2024-04-22 01:55:30,15.08825506,0.0001183,53.215,131.2118,108.3227,251.7894,-6.129e-05,-1.263e-05,0.0,0 STARLINK-5050,1 53890U 22119E   24113.08021303 -.00001263  00000-0 -61290-4 0  9994,2 53890  53.2150 131.2118 0001183 108.3227 251.7894 15.08825506 88109,6917.925,95.438,540.608,538.971,0.0
53890.0,STARLINK-5050,PAYLOAD,2024-04-22 06:41:39,15.08836072,0.0001197,53.2147,130.3202,97.5527,262.5601,0.00022346,3.27e-05,0.0,0 STARLINK-5050,1 53890U 22119E   24113.27893327  .00003270  00000-0  22346-3 0  9994,2 53890  53.2147 130.3202 0001197  97.5527 262.5601 15.08836072 88551,6917.892,95.438,540.585,538.929,0.0
53890.0,STARLINK-5050,PAYLOAD,2024-04-22 11:27:49,15.08840926,0.0001203,53.2148,129.4269,100.1828,259.93,0.0005648,8.713e-05,0.0,0 STARLINK-5050,1 53890U 22119E   24113.47765448  .00008713  00000-0  56480-3 0  9991,2 53890  53.2148 129.4269 0001203 100.1828 259.9300 15.08840926 88163,6917.878,95.437,540.575,538.91,0.0
53890.0,STARLINK-5050,PAYLOAD,2024-04-23 09:43:12,15.08861573,0.0001139,53.2143,125.2629,102.0063,258.1057,0.00063233,9.796e-05,0.0,0 STARLINK-5050,1 53890U 22119E   24114.40500800  .00009796  00000-0  63233-3 0  9990,2 53890  53.2143 125.2629 0001139 102.0063 258.1057 15.08861573 88725,6917.814,95.436,540.467,538.892,0.0
53890.0,STARLINK-5050,PAYLOAD,2024-04-24 00:01:40,15.08855636,0.0001375,53.2138,122.5916,78.5312,281.5835,0.00030009,4.493e-05,0.0,0 STARLINK-5050,1 53890U 22119E   24115.00116539  .00004493  00000-0  30009-3 0  9993,2 53890  53.2138 122.5916 0001375  78.5312 281.5835 15.08855636 88394,6917.833,95.437,540.649,538.746,0.0
53890.0,STARLINK-5050,PAYLOAD,2024-04-24 07:58:36,15.08850005,0.0001182,53.2143,121.1012,99.2467,260.8658,6.5058e-05,7.48e-06,0.0,0 STARLINK-5050,1 53890U 22119E   24115.33236394  .00000748  00000-0  65058-4 0  9993,2 53890  53.2143 121.1012 0001182  99.2467 260.8658 15.08850005 88869,6917.85,95.437,540.532,538.897,0.0
53890.0,STARLINK-5050,PAYLOAD,2024-04-25 04:38:37,15.0884419,0.0001372,53.2144,117.2369,85.6593,274.4556,2.5079e-05,1.11e-06,0.0,0 STARLINK-5050,1 53890U 22119E   24116.19348527  .00000111  00000-0  25079-4 0  9993,2 53890  53.2144 117.2369 0001372  85.6593 274.4556 15.08844190 88575,6917.868,95.437,540.682,538.783,0.0
